ION SCV-008             
1 55051U 23001AU  26068.82429008  .00008336  00000+0  31423-3 0  9992
2 55051  97.5676 163.6060 0015192   8.5420 351.6074 15.27226640176169
STARLINK-36413          
1 67338U 26003E   26068.51340059  .00031406  00000+0  11451-2 0  9994
2 67338  43.0020 228.3477 0001583 287.9271  72.1408 15.27603017  8792
