[{"OBJECT_NAME":"ION SCV-008","OBJECT_ID":"2023-001AU","EPOCH":"2026-03-09T19:46:58.662912","MEAN_MOTION":15.2722664,"ECCENTRICITY":0.00151921,"INCLINATION":97.5676,"RA_OF_ASC_NODE":163.606,"ARG_OF_PERICENTER":8.542,"MEAN_ANOMALY":351.6074,"EPHEMERIS_TYPE":0,"CLASSIFICATION_TYPE":"U","NORAD_CAT_ID":55051,"ELEMENT_SET_NO":999,"REV_AT_EPOCH":17616,"BSTAR":0.00031422806,"MEAN_MOTION_DOT":8.336e-5,"MEAN_MOTION_DDOT":0},{"OBJECT_NAME":"STARLINK-36413","OBJECT_ID":"2026-003E","EPOCH":"2026-03-09T12:19:17.810976","MEAN_MOTION":15.27603017,"ECCENTRICITY":0.00015836,"INCLINATION":43.002,"RA_OF_ASC_NODE":228.3477,"ARG_OF_PERICENTER":287.9271,"MEAN_ANOMALY":72.1408,"EPHEMERIS_TYPE":0,"CLASSIFICATION_TYPE":"U","NORAD_CAT_ID":67338,"ELEMENT_SET_NO":999,"REV_AT_EPOCH":879,"BSTAR":0.0011451229,"MEAN_MOTION_DOT":0.00031406,"MEAN_MOTION_DDOT":0}]
